{
  "norad_id": 43611,
  "name": "TELSTAR 18V",
  "history": [
    {
      "epoch": "2026-03-28T14:03:38.702304Z",
      "apogee_km": 35795.65636210192,
      "perigee_km": 35777.3737689663,
      "latitude_deg": -0.016533534885667618,
      "longitude_deg": 138.00275866748458,
      "height_km": 35795.181684873045,
      "semi_major_axis_km": 42164.652065534116,
      "eccentricity": 0.0002168,
      "inclination_deg": 0.0155,
      "raan_deg": 243.7988,
      "arg_perigee_deg": 113.5778,
      "mean_anomaly_deg": 177.517,
      "mean_motion_rev_day": 1.0027207
    },
    {
      "epoch": "2026-03-28T23:59:50.015616Z",
      "apogee_km": 35795.60201691075,
      "perigee_km": 35777.95178395203,
      "latitude_deg": 0.025255157582064716,
      "longitude_deg": 137.98851441314827,
      "height_km": 35778.888848213115,
      "semi_major_axis_km": 42164.91390043139,
      "eccentricity": 0.0002093,
      "inclination_deg": 0.0161,
      "raan_deg": 245.5226,
      "arg_perigee_deg": 112.5391,
      "mean_anomaly_deg": 326.2874,
      "mean_motion_rev_day": 1.00271136
    },
    {
      "epoch": "2026-03-29T09:16:00.789600Z",
      "apogee_km": 35795.77184907715,
      "perigee_km": 35777.29360421615,
      "latitude_deg": -0.025286222121053064,
      "longitude_deg": 138.02771675705995,
      "height_km": 35788.36876064706,
      "semi_major_axis_km": 42164.66972664666,
      "eccentricity": 0.00021912,
      "inclination_deg": 0.0148,
      "raan_deg": 243.1223,
      "arg_perigee_deg": 116.0629,
      "mean_anomaly_deg": 104.5912,
      "mean_motion_rev_day": 1.00272007
    },
    {
      "epoch": "2026-03-30T11:39:38.473344Z",
      "apogee_km": 35795.33864709573,
      "perigee_km": 35777.07979860738,
      "latitude_deg": -0.02989392584034879,
      "longitude_deg": 138.02358777334686,
      "height_km": 35792.65289092986,
      "semi_major_axis_km": 42164.34622285156,
      "eccentricity": 0.00021652,
      "inclination_deg": 0.0174,
      "raan_deg": 247.4498,
      "arg_perigee_deg": 114.1108,
      "mean_anomaly_deg": 139.2126,
      "mean_motion_rev_day": 1.00273161
    },
    {
      "epoch": "2026-03-30T17:24:02.679264Z",
      "apogee_km": 35795.15164085104,
      "perigee_km": 35777.105335222164,
      "latitude_deg": 0.003235799875546497,
      "longitude_deg": 137.99113728886246,
      "height_km": 35791.96710104259,
      "semi_major_axis_km": 42164.26548803661,
      "eccentricity": 0.000214,
      "inclination_deg": 0.0182,
      "raan_deg": 248.7992,
      "arg_perigee_deg": 112.7322,
      "mean_anomaly_deg": 225.5804,
      "mean_motion_rev_day": 1.00273449
    },
    {
      "epoch": "2026-03-31T20:33:38.566368Z",
      "apogee_km": 35795.29002226311,
      "perigee_km": 35778.01932359388,
      "latitude_deg": 0.025824965779970704,
      "longitude_deg": 137.98083399153066,
      "height_km": 35786.22567107022,
      "semi_major_axis_km": 42164.7916729285,
      "eccentricity": 0.0002048,
      "inclination_deg": 0.015,
      "raan_deg": 245.6144,
      "arg_perigee_deg": 120.5696,
      "mean_anomaly_deg": 269.4416,
      "mean_motion_rev_day": 1.00271572
    },
    {
      "epoch": "2026-04-01T19:29:38.749920Z",
      "apogee_km": 35795.42641057389,
      "perigee_km": 35778.06291230571,
      "latitude_deg": 0.020406613411716006,
      "longitude_deg": 137.97772211224364,
      "height_km": 35788.975916445175,
      "semi_major_axis_km": 42164.8816614398,
      "eccentricity": 0.0002059,
      "inclination_deg": 0.0122,
      "raan_deg": 241.0271,
      "arg_perigee_deg": 127.8614,
      "mean_anomaly_deg": 251.6785,
      "mean_motion_rev_day": 1.00271251
    },
    {
      "epoch": "2026-04-02T20:19:38.652096Z",
      "apogee_km": 35795.874833398295,
      "perigee_km": 35778.46056255803,
      "latitude_deg": 0.032248792664625416,
      "longitude_deg": 137.96718296491974,
      "height_km": 35787.82188144969,
      "semi_major_axis_km": 42165.304697978165,
      "eccentricity": 0.0002065,
      "inclination_deg": 0.0171,
      "raan_deg": 233.0223,
      "arg_perigee_deg": 138.7248,
      "mean_anomaly_deg": 262.333,
      "mean_motion_rev_day": 1.00269742
    },
    {
      "epoch": "2026-04-02T22:04:52.117824Z",
      "apogee_km": 35795.85303108257,
      "perigee_km": 35778.383122599145,
      "latitude_deg": 0.040540727174047116,
      "longitude_deg": 137.96776669829504,
      "height_km": 35783.743710673036,
      "semi_major_axis_km": 42165.25507684086,
      "eccentricity": 0.00020716,
      "inclination_deg": 0.0176,
      "raan_deg": 232.4316,
      "arg_perigee_deg": 139.0177,
      "mean_anomaly_deg": 289.0087,
      "mean_motion_rev_day": 1.00269919
    },
    {
      "epoch": "2026-04-03T20:17:38.633856Z",
      "apogee_km": 35795.83873740289,
      "perigee_km": 35778.137817811345,
      "latitude_deg": 0.028779041367282623,
      "longitude_deg": 137.96460847181078,
      "height_km": 35787.9164277879,
      "semi_major_axis_km": 42165.12527760712,
      "eccentricity": 0.0002099,
      "inclination_deg": 0.0154,
      "raan_deg": 236.8331,
      "arg_perigee_deg": 137.0493,
      "mean_anomaly_deg": 260.6822,
      "mean_motion_rev_day": 1.00270382
    },
    {
      "epoch": "2026-04-04T06:00:38.398752Z",
      "apogee_km": 35795.87406553318,
      "perigee_km": 35777.386501670015,
      "latitude_deg": -0.008855443012926203,
      "longitude_deg": 138.00752569933377,
      "height_km": 35779.83816332404,
      "semi_major_axis_km": 42164.7672836016,
      "eccentricity": 0.00021923,
      "inclination_deg": 0.0159,
      "raan_deg": 238.2614,
      "arg_perigee_deg": 135.007,
      "mean_anomaly_deg": 47.4456,
      "mean_motion_rev_day": 1.00271659
    },
    {
      "epoch": "2026-04-05T12:52:38.764992Z",
      "apogee_km": 35795.64832313132,
      "perigee_km": 35777.067273563574,
      "latitude_deg": -0.03034161065757815,
      "longitude_deg": 138.00323024530002,
      "height_km": 35793.9310081349,
      "semi_major_axis_km": 42164.49479834745,
      "eccentricity": 0.00022034,
      "inclination_deg": 0.013,
      "raan_deg": 249.0414,
      "arg_perigee_deg": 126.0041,
      "mean_anomaly_deg": 149.9415,
      "mean_motion_rev_day": 1.00272631
    },
    {
      "epoch": "2026-04-05T20:14:47.083200Z",
      "apogee_km": 35795.69107146735,
      "perigee_km": 35777.905901679114,
      "latitude_deg": 0.020075408539380283,
      "longitude_deg": 137.96603554398155,
      "height_km": 35788.08107441416,
      "semi_major_axis_km": 42164.93548657324,
      "eccentricity": 0.0002109,
      "inclination_deg": 0.0135,
      "raan_deg": 251.4931,
      "arg_perigee_deg": 125.9075,
      "mean_anomaly_deg": 258.4234,
      "mean_motion_rev_day": 1.00271059
    },
    {
      "epoch": "2026-04-06T04:48:06.939648Z",
      "apogee_km": 35795.75313357704,
      "perigee_km": 35776.99329969145,
      "latitude_deg": 0.006779507345028621,
      "longitude_deg": 138.00421256743573,
      "height_km": 35777.549005801025,
      "semi_major_axis_km": 42164.51021663425,
      "eccentricity": 0.00022246,
      "inclination_deg": 0.0128,
      "raan_deg": 251.3733,
      "arg_perigee_deg": 125.0447,
      "mean_anomaly_deg": 28.0928,
      "mean_motion_rev_day": 1.00272576
    },
    {
      "epoch": "2026-04-07T08:11:03.824736Z",
      "apogee_km": 35795.69581923939,
      "perigee_km": 35776.91493331615,
      "latitude_deg": -0.018057529921924883,
      "longitude_deg": 138.02186972678493,
      "height_km": 35783.896893383404,
      "semi_major_axis_km": 42164.442376277766,
      "eccentricity": 0.00022271,
      "inclination_deg": 0.0145,
      "raan_deg": 254.9711,
      "arg_perigee_deg": 123.0438,
      "mean_anomaly_deg": 78.363,
      "mean_motion_rev_day": 1.00272818
    },
    {
      "epoch": "2026-04-08T06:47:38.588064Z",
      "apogee_km": 35795.726082646994,
      "perigee_km": 35776.73609454725,
      "latitude_deg": -0.008154247702456215,
      "longitude_deg": 138.02426123700434,
      "height_km": 35780.43695852083,
      "semi_major_axis_km": 42164.36808859712,
      "eccentricity": 0.00022519,
      "inclination_deg": 0.0166,
      "raan_deg": 255.8891,
      "arg_perigee_deg": 124.2598,
      "mean_anomaly_deg": 56.3088,
      "mean_motion_rev_day": 1.00273083
    },
    {
      "epoch": "2026-04-09T20:48:30.077856Z",
      "apogee_km": 35795.52817376428,
      "perigee_km": 35778.18149612339,
      "latitude_deg": 0.021634895759896928,
      "longitude_deg": 137.97850293079614,
      "height_km": 35786.593027775794,
      "semi_major_axis_km": 42164.99183494384,
      "eccentricity": 0.0002057,
      "inclination_deg": 0.0151,
      "raan_deg": 255.82,
      "arg_perigee_deg": 124.0694,
      "mean_anomaly_deg": 268.3443,
      "mean_motion_rev_day": 1.00270858
    },
    {
      "epoch": "2026-04-10T04:38:13.947072Z",
      "apogee_km": 35795.534705247,
      "perigee_km": 35778.23439690459,
      "latitude_deg": 0.0060769440361143,
      "longitude_deg": 138.01160299989562,
      "height_km": 35778.606425075624,
      "semi_major_axis_km": 42165.0215510758,
      "eccentricity": 0.00020515,
      "inclination_deg": 0.0143,
      "raan_deg": 255.7437,
      "arg_perigee_deg": 123.704,
      "mean_anomaly_deg": 26.5394,
      "mean_motion_rev_day": 1.00270752
    }
  ]
}